[Satellite]
VERSION=1.1
NAME=SL-14 R/B
NICKNAME=SL-14 R/B
TLE1=1 15945U 85069B   20158.13110116  .00000077  00000-0  64272-5 0  9992
TLE2=2 15945  82.5280 196.8829 0018356 303.9312  56.0157 14.84037376881934
STATUS=0
